NORAD_CAT_ID,OBJECT_NAME,OBJECT_TYPE,EPOCH,MEAN_MOTION,ECCENTRICITY,INCLINATION,RA_OF_ASC_NODE,ARG_OF_PERICENTER,MEAN_ANOMALY,BSTAR,MEAN_MOTION_DOT,MEAN_MOTION_DDOT,TLE_LINE0,TLE_LINE1,TLE_LINE2,SEMIMAJOR_AXIS,PERIOD,APOGEE,PERIGEE,DECAYED
53567.0,STARLINK-4585,PAYLOAD,2022-09-11 12:00:00,15.73233576,0.000185,53.216,42.3251,41.2249,270.3573,-0.00047432,-0.00066762,0.0,0 STARLINK-4585,1 53567U 22101AS  22254.50001157 -.00066762  00000-0 -47432-3 0  9998,2 53567  53.2160  42.3251 0001850  41.2249 270.3573 15.73233576  3594,6727.799,91.531,350.909,348.42,0.0
53567.0,STARLINK-4585,PAYLOAD,2022-09-11 14:00:01,15.73213041,0.0001911,53.216,41.9134,38.8606,24.9637,-0.0002853,-0.00040494,0.0,0 STARLINK-4585,1 53567U 22101AS  22254.58334491 -.00040494  00000-0 -28530-3 0  9998,2 53567  53.2160  41.9134 0001911  38.8606  24.9637 15.73213041  1302,6727.858,91.532,351.009,348.43699999999984,0.0
53567.0,STARLINK-4585,PAYLOAD,2022-09-11 20:00:01,15.7318324,0.0002121999999999,53.2163,40.6766,36.2774,4.2449,0.00028009,0.00038844,0.0,0 STARLINK-4585,1 53567U 22101AS  22254.83334491  .00038844  00000-0  28009-3 0  9991,2 53567  53.2163  40.6766 0002122  36.2774   4.2449 15.73183240  3654,6727.943,91.534,351.236,348.38,0.0
53567.0,STARLINK-4585,PAYLOAD,2022-09-11 22:00:00,15.73220695,0.0002105,53.2161,40.2635,35.4771,117.2665,-0.00028275,-0.00040153,0.0,0 STARLINK-4585,1 53567U 22101AS  22254.91667824 -.00040153  00000-0 -28275-3 0  9992,2 53567  53.2161  40.2635 0002105  35.4771 117.2665 15.73220695  1303,6727.8359999999975,91.532,351.117,348.285,0.0
53567.0,STARLINK-4585,PAYLOAD,2022-09-12 12:00:00,15.73197236,0.000188,53.2168,37.3767,29.6451,188.7471,0.00014893,0.00020329,0.0,0 STARLINK-4585,1 53567U 22101AS  22255.50001157  .00020329  00000-0  14893-3 0  9991,2 53567  53.2168  37.3767 0001880  29.6451 188.7471 15.73197236  1304,6727.903,91.533,351.033,348.50300000000016,0.0
53567.0,STARLINK-4585,PAYLOAD,2022-09-12 22:00:00,15.7318991,0.0002108,53.216,35.3161,19.3237,40.2562,0.00043969,0.00061517,0.0,0 STARLINK-4585,1 53567U 22101AS  22255.91667824  .00061517  00000-0  43969-3 0  9995,2 53567  53.2160  35.3161 0002108  19.3237  40.2562 15.73189910  1307,6727.924,91.534,351.207,348.371,0.0
53567.0,STARLINK-4585,PAYLOAD,2022-09-13 14:00:01,15.73213172,0.000218,53.2165,32.0167,27.315,210.1669,4.1356e-05,5.19e-05,0.0,0 STARLINK-4585,1 53567U 22101AS  22256.58334491  .00005190  00000-0  41356-4 0  9994,2 53567  53.2165  32.0167 0002180  27.3150 210.1669 15.73213172  1309,6727.858,91.532,351.189,348.256,0.0
53567.0,STARLINK-4585,PAYLOAD,2022-09-13 16:00:00,15.73204601,0.0002243,53.2164,31.6048,27.6248,322.0965,0.00017871,0.0002454,0.0,0 STARLINK-4585,1 53567U 22101AS  22256.66667824  .00024540  00000-0  17871-3 0  9996,2 53567  53.2164  31.6048 0002243  27.6248 322.0965 15.73204601  3932,6727.882,91.533,351.256,348.23800000000006,0.0
53567.0,STARLINK-4585,PAYLOAD,2022-09-13 22:00:00,15.73228438,0.0002290999999999,53.2165,30.3673,23.4875,302.8908,-0.00057621,-0.00080825,0.0,0 STARLINK-4585,1 53567U 22101AS  22256.91667824 -.00080825  00000-0 -57621-3 0  9991,2 53567  53.2165  30.3673 0002291  23.4875 302.8908 15.73228438  1302,6727.814,91.532,351.22,348.13800000000015,0.0
53567.0,STARLINK-4585,PAYLOAD,2022-09-14 04:00:00,15.7315783,0.0002189,53.217,29.129,27.118,275.98400000000004,0.00011888,0.00016066,0.0,0 STARLINK-4585,1 53567U 22101AS  22257.16667824  .00016066  00000-0  11888-3 0  9998,2 53567  53.2170  29.1290 0002189  27.1180 275.9840 15.73157830  4018,6728.015,91.536,351.353,348.408,0.0
53567.0,STARLINK-4585,PAYLOAD,2022-09-14 14:00:01,15.73179524,0.0002443,53.2171,27.0681,28.1396,116.0446,0.00029556,0.00041029,0.0,0 STARLINK-4585,1 53567U 22101AS  22257.58334491  .00041029  00000-0  29556-3 0  9993,2 53567  53.2171  27.0681 0002443  28.1396 116.0446 15.73179524  1303,6727.954000000002,91.534,351.462,348.175,0.0
53567.0,STARLINK-4585,PAYLOAD,2022-09-14 22:00:00,15.73232313,0.0002511,53.2162,25.4193,24.0996,208.9942,-0.00040185,-0.00056727,0.0,0 STARLINK-4585,1 53567U 22101AS  22257.91667824 -.00056727  00000-0 -40185-3 0  9993,2 53567  53.2162  25.4193 0002511  24.0996 208.9942 15.73232313  1308,6727.803000000001,91.531,351.357,347.97900000000016,0.0
53567.0,STARLINK-4585,PAYLOAD,2022-09-15 14:00:01,15.73221387,0.0002524,53.2166,22.1204,26.3929,24.6035,4.6181e-05,5.870000000000001e-05,0.0,0 STARLINK-4585,1 53567U 22101AS  22258.58334491  .00005870  00000-0  46181-4 0  9992,2 53567  53.2166  22.1204 0002524  26.3929  24.6035 15.73221387  1309,6727.834,91.532,351.397,348.001,0.0
53567.0,STARLINK-4585,PAYLOAD,2022-09-15 22:00:00,15.73239025,0.0002595,53.2166,20.4709,22.2173,117.7286,-0.00033388,-0.00047304,0.0,0 STARLINK-4585,1 53567U 22101AS  22258.91667824 -.00047304  00000-0 -33388-3 0  9992,2 53567  53.2166  20.4709 0002595  22.2173 117.7286 15.73239025  4295,6727.784000000002,91.531,351.395,347.903,0.0
53567.0,STARLINK-4585,PAYLOAD,2022-09-16 14:00:01,15.73171266,0.0002689,53.2168,17.1717,20.9087,296.9182,-0.00021852,-0.00031144,0.0,0 STARLINK-4585,1 53567U 22101AS  22259.58334491 -.00031144  00000-0 -21852-3 0  9995,2 53567  53.2168  17.1717 0002689  20.9087 296.9182 15.73171266  1308,6727.977,91.535,351.651,348.033,0.0
53567.0,STARLINK-4585,PAYLOAD,2022-09-16 22:00:00,15.73154953,0.0002731999999999,53.2163,15.5222,18.1349,28.5772,-0.00012371,-0.00017917,0.0,0 STARLINK-4585,1 53567U 22101AS  22259.91667824 -.00017917  00000-0 -12371-3 0  9999,2 53567  53.2163  15.5222 0002732  18.1349  28.5772 15.73154953  1303,6728.024,91.536,351.727,348.051,0.0
53567.0,STARLINK-4585,PAYLOAD,2022-09-17 06:00:00,15.73130559,0.0002494,53.2164,13.8712,19.7224,115.8595,0.00065577,0.0009216,0.0,0 STARLINK-4585,1 53567U 22101AS  22260.25001157  .00092160  00000-0  65577-3 0  9996,2 53567  53.2164  13.8712 0002494  19.7224 115.8595 15.73130559  4507,6728.093000000003,91.537,351.636,348.28,0.0
53567.0,STARLINK-4585,PAYLOAD,2022-09-17 14:00:01,15.73192869,0.0002783,53.2165,12.2238,18.4075,206.0615,0.00028732,0.00039887,0.0,0 STARLINK-4585,1 53567U 22101AS  22260.58334491  .00039887  00000-0  28732-3 0  9991,2 53567  53.2165  12.2238 0002783  18.4075 206.0615 15.73192869  1308,6727.916,91.534,351.653,347.908,0.0
53567.0,STARLINK-4585,PAYLOAD,2022-09-17 22:00:00,15.73264792,0.0002795,53.2166,10.5739,14.7695,298.6273,-0.00054342,-0.00076427,0.0,0 STARLINK-4585,1 53567U 22101AS  22260.91667824 -.00076427  00000-0 -54342-3 0  9996,2 53567  53.2166  10.5739 0002795  14.7695 298.6273 15.73264792  4604,6727.71,91.529,351.456,347.695,0.0
53567.0,STARLINK-4585,PAYLOAD,2022-09-18 04:00:00,15.73174514,0.0002673,53.2168,9.3351,14.753,275.3952,0.00074625,0.00105328,0.0,0 STARLINK-4585,1 53567U 22101AS  22261.16667824  .00105328  00000-0  74625-3 0  9991,2 53567  53.2168   9.3351 0002673  14.7530 275.3952 15.73174514  4647,6727.968000000003,91.535,351.631,348.034,0.0
53567.0,STARLINK-4585,PAYLOAD,2022-09-18 14:00:01,15.73283322,0.0002956,53.2169,7.2748,14.9163,116.4776,-0.00027524,-0.00039219,0.0,0 STARLINK-4585,1 53567U 22101AS  22261.58335648 -.00039219  00000-0 -27524-3 0  9996,2 53567  53.2169   7.2748 0002956  14.9163 116.4776 15.73283322  4718,6727.658,91.528,351.511,347.534,0.0
53567.0,STARLINK-4585,PAYLOAD,2022-09-18 22:00:00,15.73274405,0.0002995,53.2165,5.6247,13.897,206.443,-0.00068417,-0.00095886,0.0,0 STARLINK-4585,1 53567U 22101AS  22261.91667824 -.00095886  00000-0 -68417-3 0  9995,2 53567  53.2165   5.6247 0002995  13.8970 206.4430 15.73274405  1308,6727.683000000001,91.529,351.56300000000016,347.533,0.0
53567.0,STARLINK-4585,PAYLOAD,2022-09-19 06:00:02,15.73202787,0.0002891,53.2174,3.9667,20.4232,288.8653,1.9845e-05,2.164e-05,0.0,0 STARLINK-4585,1 53567U 22101AS  22262.25002315  .00002164  00000-0  19845-4 0  9998,2 53567  53.2174   3.9667 0002891  20.4232 288.8653 15.73202787  4819,6727.887,91.533,351.69699999999995,347.807,0.0
53567.0,STARLINK-4585,PAYLOAD,2022-09-19 14:00:01,15.73205869,0.0003026,53.2173,2.3194,20.1784,17.9763,-2.0582e-05,-3.512e-05,0.0,0 STARLINK-4585,1 53567U 22101AS  22262.58334491 -.00003512  00000-0 -20582-4 0  9997,2 53567  53.2173   2.3194 0003026  20.1784  17.9763 15.73205869  1304,6727.878000000002,91.533,351.779,347.708,0.0
53567.0,STARLINK-4585,PAYLOAD,2022-09-19 22:00:00,15.73186384,0.000309,53.2169,0.6759999999999999,16.6686,110.5384,7.390000000000001e-05,9.757e-05,0.0,0 STARLINK-4585,1 53567U 22101AS  22262.91667824  .00009757  00000-0  73900-4 0  9990,2 53567  53.2169   0.6760 0003090  16.6686 110.5384 15.73186384  1300,6727.934,91.534,351.87800000000016,347.72,0.0
53567.0,STARLINK-4585,PAYLOAD,2022-09-20 14:00:01,15.73203834,0.0003237,53.2173,357.3777,13.4517,291.6073,-0.00015322,-0.0002208,0.0,0 STARLINK-4585,1 53567U 22101AS  22263.58334491 -.00022080  00000-0 -15322-3 0  9994,2 53567  53.2173 357.3777 0003237  13.4517 291.6073 15.73203834  1302,6727.884,91.533,351.927,347.571,0.0
53567.0,STARLINK-4585,PAYLOAD,2022-09-20 22:00:01,15.73177884,0.0003171,53.217,355.7273,11.3295,22.7258,1.1253e-05,9.55e-06,0.0,0 STARLINK-4585,1 53567U 22101AS  22263.91668981  .00000955  00000-0  11253-4 0  9990,2 53567  53.2170 355.7273 0003171  11.3295  22.7258 15.73177884  1302,6727.958000000001,91.534,351.957,347.69,0.0
53567.0,STARLINK-4585,PAYLOAD,2022-09-21 22:00:00,15.73220862,0.0003373,53.2172,350.7792,15.8537,284.8624,3.7215e-05,4.608e-05,0.0,0 STARLINK-4585,1 53567U 22101AS  22264.91667824  .00004608  00000-0  37215-4 0  9991,2 53567  53.2172 350.7792 0003373  15.8537 284.8624 15.73220862  1300,6727.8359999999975,91.532,351.97,347.431,0.0
53567.0,STARLINK-4585,PAYLOAD,2022-09-22 14:00:01,15.73209629,0.0003561,53.2176,347.4813,13.0339,105.5881,-0.00030114,-0.00042706,0.0,0 STARLINK-4585,1 53567U 22101AS  22265.58334491 -.00042706  00000-0 -30114-3 0  9999,2 53567  53.2176 347.4813 0003561  13.0339 105.5881 15.73209629  1302,6727.868,91.533,352.129,347.337,0.0
